start=new Date('2023-02-02T00:00:00.000Z').valueOf();
sats=[{"TIME_SYSTEM":"UTC","ECCENTRICITY":"0.00008330","NORAD_CAT_ID":"51980","MEAN_ANOMALY":"255.9661","PERIOD":"95.415","MEAN_MOTION":"15.09190402","OBJECT_NAME":"STARLINK-3649","RCS_SIZE":"LARGE","APOAPSIS":"539.251","OBJECT_TYPE":"PAYLOAD","COUNTRY_CODE":"US","EPOCH":"2023-01-30T16:51:55.593792","TLE_LINE1":"1 51980U 22025AA  23030.70272678  .00046308  00000-0  28810-2 0  9993","RA_OF_ASC_NODE":"89.7806","OBJECT_ID":"2022-025AA","TLE_LINE2":"2 51980  53.2177  89.7806 0000833 104.1423 255.9661 15.09190402 49869","GP_ID":"224055959","SEMIMAJOR_AXIS":"6916.810","BSTAR":"0.00288100000000","REF_FRAME":"TEME","MEAN_MOTION_DDOT":"0.0000000000000","SITE":"AFETR","EPHEMERIS_TYPE":"0","CLASSIFICATION_TYPE":"U","ELEMENT_SET_NO":"999","MEAN_ELEMENT_THEORY":"SGP4","REV_AT_EPOCH":"4986","INCLINATION":"53.2177","MEAN_MOTION_DOT":"0.00046308","FILE":"3765849","CENTER_NAME":"EARTH","LAUNCH_DATE":"2022-03-09","PERIAPSIS":"538.098","DECAY_DATE":null,"ARG_OF_PERICENTER":"104.1423"},{"LAUNCH_DATE":"2022-03-09","FILE":"3767556","CENTER_NAME":"EARTH","MEAN_MOTION_DOT":"0.00001331","ARG_OF_PERICENTER":"102.3401","PERIAPSIS":"538.827","DECAY_DATE":null,"CLASSIFICATION_TYPE":"U","ELEMENT_SET_NO":"999","INCLINATION":"53.2183","REV_AT_EPOCH":"5123","MEAN_ELEMENT_THEORY":"SGP4","MEAN_MOTION_DDOT":"0.0000000000000","REF_FRAME":"TEME","BSTAR":"0.00010166000000","SEMIMAJOR_AXIS":"6917.851","EPHEMERIS_TYPE":"0","SITE":"AFETR","TLE_LINE2":"2 51981  53.2183  81.6835 0001285 102.3401 257.7735 15.08849529 51234","RA_OF_ASC_NODE":"81.6835","OBJECT_ID":"2022-025AB","GP_ID":"224201740","EPOCH":"2023-02-01T12:09:00.463104","COUNTRY_CODE":"US","TLE_LINE1":"1 51981U 22025AB  23032.50625536  .00001331  00000-0  10166-3 0  9992","APOAPSIS":"540.605","OBJECT_TYPE":"PAYLOAD","RCS_SIZE":"LARGE","PERIOD":"95.437","MEAN_MOTION":"15.08849529","OBJECT_NAME":"STARLINK-3635","TIME_SYSTEM":"UTC","ECCENTRICITY":"0.00012850","MEAN_ANOMALY":"257.7735","NORAD_CAT_ID":"51981"},{"PERIAPSIS":"538.496","DECAY_DATE":null,"ARG_OF_PERICENTER":"104.5891","MEAN_MOTION_DOT":"0.00000047","CENTER_NAME":"EARTH","FILE":"3767525","LAUNCH_DATE":"2022-03-09","MEAN_ELEMENT_THEORY":"SGP4","REV_AT_EPOCH":"5014","INCLINATION":"53.2160","CLASSIFICATION_TYPE":"U","ELEMENT_SET_NO":"999","EPHEMERIS_TYPE":"0","SITE":"AFETR","REF_FRAME":"TEME","BSTAR":"0.00002104100000","SEMIMAJOR_AXIS":"6917.857","MEAN_MOTION_DDOT":"0.0000000000000","GP_ID":"224199027","RA_OF_ASC_NODE":"81.4773","OBJECT_ID":"2022-025AC","TLE_LINE2":"2 51982  53.2160  81.4773 0001773 104.5891 255.5298 15.08847501 50145","TLE_LINE1":"1 51982U 22025AC  23032.55409637  .00000047  00000-0  21041-4 0  9998","EPOCH":"2023-02-01T13:17:53.926368","COUNTRY_CODE":"US","RCS_SIZE":"LARGE","APOAPSIS":"540.949","OBJECT_TYPE":"PAYLOAD","OBJECT_NAME":"STARLINK-3650","PERIOD":"95.437","MEAN_MOTION":"15.08847501","NORAD_CAT_ID":"51982","MEAN_ANOMALY":"255.5298","ECCENTRICITY":"0.00017730","TIME_SYSTEM":"UTC"},{"GP_ID":"224197775","RA_OF_ASC_NODE":"81.7040","OBJECT_ID":"2022-025AD","TLE_LINE2":"2 51983  53.2176  81.7040 0001265  99.0087 261.1049 15.08843439 50136","SITE":"AFETR","EPHEMERIS_TYPE":"0","REF_FRAME":"TEME","BSTAR":"0.00008490500000","SEMIMAJOR_AXIS":"6917.870","MEAN_MOTION_DDOT":"0.0000000000000","REV_AT_EPOCH":"5013","MEAN_ELEMENT_THEORY":"SGP4","INCLINATION":"53.2176","CLASSIFICATION_TYPE":"U","ELEMENT_SET_NO":"999","PERIAPSIS":"538.860","DECAY_DATE":null,"ARG_OF_PERICENTER":"99.0087","MEAN_MOTION_DOT":"0.00001064","FILE":"3767525","CENTER_NAME":"EARTH","LAUNCH_DATE":"2022-03-09","NORAD_CAT_ID":"51983","MEAN_ANOMALY":"261.1049","TIME_SYSTEM":"UTC","ECCENTRICITY":"0.00012650","OBJECT_NAME":"STARLINK-3655","PERIOD":"95.437","MEAN_MOTION":"15.08843439","RCS_SIZE":"LARGE","OBJECT_TYPE":"PAYLOAD","APOAPSIS":"540.610","TLE_LINE1":"1 51983U 22025AD  23032.50258005  .00001064  00000-0  84905-4 0  9993","EPOCH":"2023-02-01T12:03:42.916320","COUNTRY_CODE":"US"},{"MEAN_ANOMALY":"274.7085","NORAD_CAT_ID":"51984","ECCENTRICITY":"0.00015870","TIME_SYSTEM":"UTC","OBJECT_NAME":"STARLINK-3664","PERIOD":"95.437","MEAN_MOTION":"15.08853705","APOAPSIS":"540.801","OBJECT_TYPE":"PAYLOAD","RCS_SIZE":"LARGE","TLE_LINE1":"1 51984U 22025AE  23032.39953652  .00000136  00000-0  26604-4 0  9992","EPOCH":"2023-02-01T09:35:19.955328","COUNTRY_CODE":"US","GP_ID":"224201269","TLE_LINE2":"2 51984  53.2162  82.1804 0001587  85.4088 274.7085 15.08853705 51220","RA_OF_ASC_NODE":"82.1804","OBJECT_ID":"2022-025AE","EPHEMERIS_TYPE":"0","SITE":"AFETR","MEAN_MOTION_DDOT":"0.0000000000000","REF_FRAME":"TEME","BSTAR":"0.00002660400000","SEMIMAJOR_AXIS":"6917.838","REV_AT_EPOCH":"5122","MEAN_ELEMENT_THEORY":"SGP4","INCLINATION":"53.2162","ELEMENT_SET_NO":"999","CLASSIFICATION_TYPE":"U","ARG_OF_PERICENTER":"85.4088","PERIAPSIS":"538.606","DECAY_DATE":null,"LAUNCH_DATE":"2022-03-09","FILE":"3767559","CENTER_NAME":"EARTH","MEAN_MOTION_DOT":"0.00000136"},{"RCS_SIZE":"LARGE","APOAPSIS":"540.604","OBJECT_TYPE":"PAYLOAD","EPOCH":"2023-02-01T13:28:29.900352","COUNTRY_CODE":"US","TLE_LINE1":"1 51985U 22025AF  23032.56145718  .00002475  00000-0  17348-3 0  9990","TIME_SYSTEM":"UTC","ECCENTRICITY":"0.00012770","NORAD_CAT_ID":"51985","MEAN_ANOMALY":"262.3865","PERIOD":"95.437","MEAN_MOTION":"15.08848239","OBJECT_NAME":"STARLINK-3651","ELEMENT_SET_NO":"999","CLASSIFICATION_TYPE":"U","REV_AT_EPOCH":"5014","MEAN_ELEMENT_THEORY":"SGP4","INCLINATION":"53.2154","MEAN_MOTION_DOT":"0.00002475","CENTER_NAME":"EARTH","FILE":"3767525","LAUNCH_DATE":"2022-03-09","DECAY_DATE":null,"PERIAPSIS":"538.837","ARG_OF_PERICENTER":"97.7272","OBJECT_ID":"2022-025AF","RA_OF_ASC_NODE":"81.4477","TLE_LINE2":"2 51985  53.2154  81.4477 0001277  97.7272 262.3865 15.08848239 50142","GP_ID":"224198777","REF_FRAME":"TEME","BSTAR":"0.00017348000000","SEMIMAJOR_AXIS":"6917.855","MEAN_MOTION_DDOT":"0.0000000000000","SITE":"AFETR","EPHEMERIS_TYPE":"0"},{"TLE_LINE1":"1 51986U 22025AG  23032.52465597  .00002171  00000-0  15441-3 0  9992","EPOCH":"2023-02-01T12:35:30.275808","COUNTRY_CODE":"US","APOAPSIS":"540.523","OBJECT_TYPE":"PAYLOAD","RCS_SIZE":"LARGE","OBJECT_NAME":"STARLINK-3645","PERIOD":"95.437","MEAN_MOTION":"15.08850732","MEAN_ANOMALY":"265.1542","NORAD_CAT_ID":"51986","ECCENTRICITY":"0.00011720","TIME_SYSTEM":"UTC","ARG_OF_PERICENTER":"94.9584","DECAY_DATE":null,"PERIAPSIS":"538.902","FILE":"3767525","LAUNCH_DATE":"2022-03-09","CENTER_NAME":"EARTH","MEAN_MOTION_DOT":"0.00002171","REV_AT_EPOCH":"5014","MEAN_ELEMENT_THEORY":"SGP4","INCLINATION":"53.2146","ELEMENT_SET_NO":"999","CLASSIFICATION_TYPE":"U","EPHEMERIS_TYPE":"0","SITE":"AFETR","MEAN_MOTION_DDOT":"0.0000000000000","REF_FRAME":"TEME","BSTAR":"0.00015441000000","SEMIMAJOR_AXIS":"6917.848","GP_ID":"224198528","TLE_LINE2":"2 51986  53.2146  81.6174 0001172  94.9584 265.1542 15.08850732 50143","RA_OF_ASC_NODE":"81.6174","OBJECT_ID":"2022-025AG"},{"SITE":"AFETR","EPHEMERIS_TYPE":"0","BSTAR":"0.00014219000000","REF_FRAME":"TEME","SEMIMAJOR_AXIS":"6917.810","MEAN_MOTION_DDOT":"0.0000000000000","GP_ID":"224201791","RA_OF_ASC_NODE":"81.5518","OBJECT_ID":"2022-025AH","TLE_LINE2":"2 51987  53.2160  81.5518 0001158  78.5389 281.5734 15.08862959 51236","PERIAPSIS":"538.874","DECAY_DATE":null,"ARG_OF_PERICENTER":"78.5389","MEAN_MOTION_DOT":"0.00001977","CENTER_NAME":"EARTH","FILE":"3767561","LAUNCH_DATE":"2022-03-09","REV_AT_EPOCH":"5123","MEAN_ELEMENT_THEORY":"SGP4","INCLINATION":"53.2160","ELEMENT_SET_NO":"999","CLASSIFICATION_TYPE":"U","OBJECT_NAME":"STARLINK-3644","PERIOD":"95.436","MEAN_MOTION":"15.08862959","NORAD_CAT_ID":"51987","MEAN_ANOMALY":"281.5734","TIME_SYSTEM":"UTC","ECCENTRICITY":"0.00011580","TLE_LINE1":"1 51987U 22025AH  23032.53935586  .00001977  00000-0  14219-3 0  9999","EPOCH":"2023-02-01T12:56:40.346304","COUNTRY_CODE":"US","RCS_SIZE":"LARGE","APOAPSIS":"540.476","OBJECT_TYPE":"PAYLOAD"},{"CLASSIFICATION_TYPE":"U","ELEMENT_SET_NO":"999","REV_AT_EPOCH":"5013","INCLINATION":"53.2155","MEAN_ELEMENT_THEORY":"SGP4","LAUNCH_DATE":"2022-03-09","FILE":"3767525","CENTER_NAME":"EARTH","MEAN_MOTION_DOT":"0.00001813","ARG_OF_PERICENTER":"87.4195","PERIAPSIS":"538.904","DECAY_DATE":null,"TLE_LINE2":"2 51988  53.2155  81.9309 0001192  87.4195 272.6933 15.08845437 50137","RA_OF_ASC_NODE":"81.9309","OBJECT_ID":"2022-025AJ","GP_ID":"224197527","MEAN_MOTION_DDOT":"0.0000000000000","SEMIMAJOR_AXIS":"6917.864","REF_FRAME":"TEME","BSTAR":"0.00013194000000","EPHEMERIS_TYPE":"0","SITE":"AFETR","APOAPSIS":"540.553","OBJECT_TYPE":"PAYLOAD","RCS_SIZE":"LARGE","COUNTRY_CODE":"US","EPOCH":"2023-02-01T10:54:49.440096","TLE_LINE1":"1 51988U 22025AJ  23032.45473889  .00001813  00000-0  13194-3 0  9994","TIME_SYSTEM":"UTC","ECCENTRICITY":"0.00011920","MEAN_ANOMALY":"272.6933","NORAD_CAT_ID":"51988","PERIOD":"95.437","MEAN_MOTION":"15.08845437","OBJECT_NAME":"STARLINK-3640"},{"OBJECT_TYPE":"PAYLOAD","APOAPSIS":"540.804","RCS_SIZE":"LARGE","COUNTRY_CODE":"US","EPOCH":"2023-02-01T11:16:00.861024","TLE_LINE1":"1 51989U 22025AK  23032.46945441  .00001671  00000-0  12304-3 0  9998","ECCENTRICITY":"0.00015630","TIME_SYSTEM":"UTC","MEAN_ANOMALY":"239.5537","NORAD_CAT_ID":"51989","PERIOD":"95.437","MEAN_MOTION":"15.08847344","OBJECT_NAME":"STARLINK-3642","ELEMENT_SET_NO":"999","CLASSIFICATION_TYPE":"U","REV_AT_EPOCH":"5013","INCLINATION":"53.2145","MEAN_ELEMENT_THEORY":"SGP4","FILE":"3767525","LAUNCH_DATE":"2022-03-09","CENTER_NAME":"EARTH","MEAN_MOTION_DOT":"0.00001671","ARG_OF_PERICENTER":"120.5610","PERIAPSIS":"538.642","DECAY_DATE":null,"TLE_LINE2":"2 51989  53.2145  81.8566 0001563 120.5610 239.5537 15.08847344 50135","OBJECT_ID":"2022-025AK","RA_OF_ASC_NODE":"81.8566","GP_ID":"224198278","MEAN_MOTION_DDOT":"0.0000000000000","SEMIMAJOR_AXIS":"6917.858","BSTAR":"0.00012304000000","REF_FRAME":"TEME","SITE":"AFETR","EPHEMERIS_TYPE":"0"}];
